NORAD_CAT_ID,OBJECT_NAME,OBJECT_TYPE,EPOCH,MEAN_MOTION,ECCENTRICITY,INCLINATION,RA_OF_ASC_NODE,ARG_OF_PERICENTER,MEAN_ANOMALY,BSTAR,MEAN_MOTION_DOT,MEAN_MOTION_DDOT,TLE_LINE0,TLE_LINE1,TLE_LINE2,SEMIMAJOR_AXIS,PERIOD,APOGEE,PERIGEE,DECAYED
55639.0,STARLINK-5508,PAYLOAD,2023-08-02 23:29:53,14.9833468,0.0003215,69.9984,59.0215,269.8164,90.2627,8.4055e-05,9.1e-06,0.0,0 STARLINK-5508,1 55639U 23021M   23214.97908569  .00000910  00000-0  84055-4 0  9997,2 55639  69.9984  59.0215 0003215 269.8164  90.2627 14.98334680 26239,6950.178,96.107,574.278,569.809,0.0
55639.0,STARLINK-5508,PAYLOAD,2023-08-03 18:43:30,14.98326913,0.0003164,69.9987,57.0015,269.6321,90.4475,1.7815e-05,1.2e-06,0.0,0 STARLINK-5508,1 55639U 23021M   23215.78021253  .00000120  00000-0  17815-4 0  9996,2 55639  69.9987  57.0015 0003164 269.6321  90.4475 14.98326913 26350,6950.202,96.107,574.266,569.868,0.0
55639.0,STARLINK-5508,PAYLOAD,2023-08-04 23:33:55,14.98332202,0.0003066,69.9992,53.9721,268.6423,91.4384,-4.0654e-05,-5.78e-06,0.0,0 STARLINK-5508,1 55639U 23021M   23216.98189061 -.00000578  00000-0 -40654-4 0  9997,2 55639  69.9992  53.9721 0003066 268.6423  91.4384 14.98332202 26536,6950.186,96.107,574.182,569.92,0.0
55639.0,STARLINK-5508,PAYLOAD,2023-08-05 23:35:55,14.98336628,0.0003092,69.9993,51.4471,266.1832,93.8973,9.3038e-05,1.017e-05,0.0,0 STARLINK-5508,1 55639U 23021M   23217.98328118  .00001017  00000-0  93038-4 0  9997,2 55639  69.9993  51.4471 0003092 266.1832  93.8973 14.98336628 26680,6950.172,96.107,574.186,569.888,0.0
55639.0,STARLINK-5508,PAYLOAD,2023-08-06 06:00:28,14.98324853,0.0002563,69.9994,50.7735,271.182,88.9045,-4.3026e-05,-6.06e-06,0.0,0 STARLINK-5508,1 55639U 23021M   23218.25033391 -.00000606  00000-0 -43026-4 0  9991,2 55639  69.9994  50.7735 0002563 271.1820  88.9045 14.98324853 26728,6950.209,96.107,573.855,570.292,0.0
55639.0,STARLINK-5508,PAYLOAD,2023-08-07 06:02:30,14.98323292,0.0003214,69.9992,48.2485,268.8242,91.2548,-8.9581e-05,-1.162e-05,0.0,0 STARLINK-5508,1 55639U 23021M   23219.25173825 -.00001162  00000-0 -89581-4 0  9993,2 55639  69.9992  48.2485 0003214 268.8242  91.2548 14.98323292 26872,6950.214,96.107,574.312,569.845,0.0
55639.0,STARLINK-5508,PAYLOAD,2023-08-07 22:03:50,14.9833058,0.0003215,69.9991,46.5647,267.9675,92.1116,-3.4845e-05,-5.09e-06,0.0,0 STARLINK-5508,1 55639U 23021M   23219.91933348 -.00000509  00000-0 -34845-4 0  9997,2 55639  69.9991  46.5647 0003215 267.9675  92.1116 14.98330580 26973,6950.191,96.107,574.291,569.822,0.0
55639.0,STARLINK-5508,PAYLOAD,2023-08-08 22:05:50,14.98333826,0.0003353,69.9992,44.0395,271.4096,88.6679,0.00019227,2.202e-05,0.0,0 STARLINK-5508,1 55639U 23021M   23220.92072513  .00002202  00000-0  19227-3 0  9994,2 55639  69.9992  44.0395 0003353 271.4096  88.6679 14.98333826 27125,6950.181,96.107,574.376,569.716,0.0
55639.0,STARLINK-5508,PAYLOAD,2023-08-09 18:55:35,14.98331598,0.0003308,69.9993,41.8514,271.033,89.045,3.3425e-05,3.06e-06,0.0,0 STARLINK-5508,1 55639U 23021M   23221.78861000  .00000306  00000-0  33425-4 0  9996,2 55639  69.9993  41.8514 0003308 271.0330  89.0450 14.98331598 27251,6950.188,96.107,574.352,569.754,0.0
55639.0,STARLINK-5508,PAYLOAD,2023-08-10 18:57:36,14.98337471,0.0003286,69.9994,39.3264,270.9774,89.1009,-5.7505e-05,-7.79e-06,0.0,0 STARLINK-5508,1 55639U 23021M   23222.79000559 -.00000779  00000-0 -57505-4 0  9993,2 55639  69.9994  39.3264 0003286 270.9774  89.1009 14.98337471 27405,6950.17,96.107,574.319,569.751,0.0
55639.0,STARLINK-5508,PAYLOAD,2023-08-11 22:11:53,14.98334049,0.0003386,69.9994,36.4646,270.5246,89.5525,5.78e-06,-2.4e-07,0.0,0 STARLINK-5508,1 55639U 23021M   23223.92492293 -.00000024  00000-0  57800-5 0  9990,2 55639  69.9994  36.4646 0003386 270.5246  89.5525 14.98334049 27571,6950.18,96.107,574.399,569.692,0.0
55639.0,STARLINK-5508,PAYLOAD,2023-08-12 11:00:58,14.98328025,0.0003353,69.9995,35.1181,270.8747,89.2028,-5.3288e-05,-7.29e-06,0.0,0 STARLINK-5508,1 55639U 23021M   23224.45900799 -.00000729  00000-0 -53288-4 0  9992,2 55639  69.9995  35.1181 0003353 270.8747  89.2028 14.98328025 27656,6950.199,96.107,574.394,569.734,0.0
55639.0,STARLINK-5508,PAYLOAD,2023-08-13 19:03:39,14.98326939,0.0003365,69.9997,31.7516,270.1389,89.9384,-3.8363e-05,-5.51e-06,0.0,0 STARLINK-5508,1 55639U 23021M   23225.79420882 -.00000551  00000-0 -38363-4 0  9990,2 55639  69.9997  31.7516 0003365 270.1389  89.9384 14.98326939 27856,6950.202,96.107,574.406,569.729,0.0
55639.0,STARLINK-5508,PAYLOAD,2023-08-14 17:29:32,14.98332273,0.0003376,69.9997,29.3948,270.1095,89.9677,3.6172e-05,3.39e-06,0.0,0 STARLINK-5508,1 55639U 23021M   23226.72884372  .00000339  00000-0  36172-4 0  9990,2 55639  69.9997  29.3948 0003376 270.1095  89.9677 14.98332273 27992,6950.186,96.107,574.397,569.704,0.0
55639.0,STARLINK-5508,PAYLOAD,2023-08-15 17:31:32,14.98331932,0.0003385,69.9998,26.87,270.6188,89.4583,4.9902e-05,5.02e-06,0.0,0 STARLINK-5508,1 55639U 23021M   23227.73024259  .00000502  00000-0  49902-4 0  9999,2 55639  69.9998  26.8700 0003385 270.6188  89.4583 14.98331932 28149,6950.187,96.107,574.405,569.699,0.0
55639.0,STARLINK-5508,PAYLOAD,2023-08-16 17:33:33,14.98334588,0.0003378,69.9994,24.345,270.7261,89.3511,-5.0459e-06,-1.53e-06,0.0,0 STARLINK-5508,1 55639U 23021M   23228.73164110 -.00000153  00000-0 -50459-5 0  9995,2 55639  69.9994  24.3450 0003378 270.7261  89.3511 14.98334588 28291,6950.179,96.107,574.391,569.696,0.0
55639.0,STARLINK-5508,PAYLOAD,2023-08-17 11:11:02,14.98327304,0.000327,69.9995,22.4932,272.1714,87.907,-4.8145e-05,-6.67e-06,0.0,0 STARLINK-5508,1 55639U 23021M   23229.46600559 -.00000667  00000-0 -48145-4 0  9996,2 55639  69.9995  22.4932 0003270 272.1714  87.9070 14.98327304 28401,6950.201,96.107,574.339,569.794,0.0
55639.0,STARLINK-5508,PAYLOAD,2023-08-18 16:01:27,14.98329777,0.0003296,69.9985,19.4648,270.5725,89.5056,-4.7894e-05,-6.64e-06,0.0,0 STARLINK-5508,1 55639U 23021M   23230.66768377 -.00000664  00000-0 -47894-4 0  9990,2 55639  69.9985  19.4648 0003296 270.5725  89.5056 14.98329777 28589,6950.194,96.107,574.349,569.768,0.0
55639.0,STARLINK-5508,PAYLOAD,2023-08-20 03:16:24,14.98330963,0.000333,70.0,15.7609,268.5032,91.5745,4.8455e-05,4.85e-06,0.0,0 STARLINK-5508,1 55639U 23021M   23232.13639988  .00000485  00000-0  48455-4 0  9992,2 55639  70.0000  15.7609 0003330 268.5032  91.5745 14.98330963 28805,6950.19,96.107,574.369,569.74,0.0
55639.0,STARLINK-5508,PAYLOAD,2023-08-21 12:55:14,14.98326285,0.0003365,70.0005,12.2254,268.5118,91.5655,1.9379e-05,1.38e-06,0.0,0 STARLINK-5508,1 55639U 23021M   23233.53836364  .00000138  00000-0  19379-4 0  9992,2 55639  70.0005  12.2254 0003365 268.5118  91.5655 14.98326285 29017,6950.204,96.107,574.408,569.731,0.0
55639.0,STARLINK-5508,PAYLOAD,2023-08-23 11:23:08,14.98329114,0.0003333,70.001,7.345,270.891,89.1867,2.7776e-05,2.38e-06,0.0,0 STARLINK-5508,1 55639U 23021M   23235.47440033  .00000238  00000-0  27776-4 0  9992,2 55639  70.0010   7.3450 0003333 270.8910  89.1867 14.98329114 29301,6950.196,96.107,574.377,569.744,0.0
55639.0,STARLINK-5508,PAYLOAD,2023-08-24 13:01:17,14.98325625,0.0003373,70.0013,4.6515,276.1415,83.936,-5.7405e-05,-7.78e-06,0.0,0 STARLINK-5508,1 55639U 23021M   23236.54256497 -.00000778  00000-0 -57405-4 0  9993,2 55639  70.0013   4.6515 0003373 276.1415  83.9360 14.98325625 29469,6950.206,96.107,574.416,569.727,0.0
55639.0,STARLINK-5508,PAYLOAD,2023-08-25 13:03:18,14.9832818,0.0003455,70.0013,2.1274,275.1048,84.9717,-6.9073e-06,-1.75e-06,0.0,0 STARLINK-5508,1 55639U 23021M   23237.54396242 -.00000175  00000-0 -69073-5 0  9993,2 55639  70.0013   2.1274 0003455 275.1048  84.9717 14.98328180 29912,6950.199,96.107,574.465,569.662,0.0
55639.0,STARLINK-5508,PAYLOAD,2023-08-25 17:51:42,14.98332871,0.0003373,70.0012,1.6218,273.3178,86.7595,1.7097e-05,1.11e-06,0.0,0 STARLINK-5508,1 55639U 23021M   23237.74423854  .00000111  00000-0  17097-4 0  9991,2 55639  70.0012   1.6218 0003373 273.3178  86.7595 14.98332871 29642,6950.184,96.107,574.393,569.705,0.0
55639.0,STARLINK-5508,PAYLOAD,2023-08-26 13:05:19,14.98325012,0.0003217,70.0012,359.6004,268.558,91.521,4.7873e-05,4.78e-06,0.0,0 STARLINK-5508,1 55639U 23021M   23238.54536306  .00000478  00000-0  47873-4 0  9998,2 55639  70.0012 359.6004 0003217 268.5580  91.5210 14.98325012 30066,6950.208,96.107,574.309,569.837,0.0
55639.0,STARLINK-5508,PAYLOAD,2023-08-26 17:53:43,14.98331605,0.000325,70.001,359.0962,267.3887,92.69,9.1437e-05,9.98e-06,0.0,0 STARLINK-5508,1 55639U 23021M   23238.74563749  .00000998  00000-0  91437-4 0  9993,2 55639  70.0010 359.0962 0003250 267.3887  92.6900 14.98331605 29796,6950.188,96.107,574.312,569.794,0.0
55639.0,STARLINK-5508,PAYLOAD,2023-08-27 09:55:03,14.98329205,0.0003119,70.001,357.4128,264.013,96.0674,1.8245e-05,1.25e-06,0.0,0 STARLINK-5508,1 55639U 23021M   23239.41324010  .00000125  00000-0  18245-4 0  9992,2 55639  70.0010 357.4128 0003119 264.0130  96.0674 14.98329205 30196,6950.195,96.107,574.228,569.893,0.0
55639.0,STARLINK-5508,PAYLOAD,2023-08-27 17:55:43,14.98333862,0.0003358,70.0009,356.571,269.5209,90.5565,6.486e-05,6.81e-06,0.0,0 STARLINK-5508,1 55639U 23021M   23239.74703574  .00000681  00000-0  64860-4 0  9995,2 55639  70.0009 356.5710 0003358 269.5209  90.5565 14.98333862 29946,6950.181,96.107,574.38,569.712,0.0
55639.0,STARLINK-5508,PAYLOAD,2023-08-28 08:20:57,14.98325906,0.0003482,70.0009,355.0574,273.4781,86.5979,-3.0594e-06,-1.3e-06,0.0,0 STARLINK-5508,1 55639U 23021M   23240.34788317 -.00000130  00000-0 -30594-5 0  9990,2 55639  70.0009 355.0574 0003482 273.4781  86.5979 14.98325906 30031,6950.206,96.107,574.491,569.65,0.0
55639.0,STARLINK-5508,PAYLOAD,2023-08-28 16:21:36,14.98345586,0.0003177,70.0009,354.2152,267.2193,92.8602,-0.0001314,-1.661e-05,0.0,0 STARLINK-5508,1 55639U 23021M   23240.68167268 -.00001661  00000-0 -13140-3 0  9999,2 55639  70.0009 354.2152 0003177 267.2193  92.8602 14.98345586 30087,6950.145,96.106,574.218,569.802,0.0
